#aV2009  9 11  0  0   .00000000      96 DD+AD WGS84 FIT  NGA
## 1548 432000.00000000   900.00000000 55085  .0000000000000
+   32     1  2  3  4  5  6  7  8  9 10 11 12 13 14 15 16 17
+         18 19 20 21 22 23 24 25 26 27 28 29 30 31 32  0  0
+          0  0  0  0  0  0  0  0  0  0  0  0  0  0  0  0  0
+          0  0  0  0  0  0  0  0  0  0  0  0  0  0  0  0  0
+          0  0  0  0  0  0  0  0  0  0  0  0  0  0  0  0  0
++         0  0  0  0  0  0  0  0  0  0  0  0  0  0  0  0  0
++         0  0  0  0  0  0  0  0  0  0  0  0  0  0  0  0  0
++         0  0  0  0  0  0  0  0  0  0  0  0  0  0  0  0  0
++         0  0  0  0  0  0  0  0  0  0  0  0  0  0  0  0  0
++         0  0  0  0  0  0  0  0  0  0  0  0  0  0  0  0  0
%c cc cc ccc ccc cccc cccc cccc cccc ccccc ccccc ccccc ccccc
%c cc cc ccc ccc cccc cccc cccc cccc ccccc ccccc ccccc ccccc
%f  0.0000000  0.000000000  0.00000000000  0.000000000000000
%f  0.0000000  0.000000000  0.00000000000  0.000000000000000
%i    0    0    0    0      0      0      0      0         0
%i    0    0    0    0      0      0      0      0         0
/*      NGA, ST. LOUIS,MO.                                  
/*   EPHEMERIS COMPUTED FROM  3 DAYS OF DATA                
/* CCCCCCCCCCCCCCCCCCCCCCCCCCCCCCCCCCCCCCCCCCCCCCCCCCCCCCCCC
/* CCCCCCCCCCCCCCCCCCCCCCCCCCCCCCCCCCCCCCCCCCCCCCCCCCCCCCCCC
*  2009  9 11  9 30   .00000000                                                 
P  1  19376.081586 -17902.373944  -2661.008132    -57.797418                    
V  1   4334.288538    186.345557  31602.965937      -.001590                    
P  2  13158.495904  18872.839095 -13704.039808    171.570608                    
V  2    413.871484  17316.781616  23954.036177       .029235                    
P  3 -24188.322224 -10410.693726  -5033.890048    445.673061                    
V  3   6640.599563  -1772.077470 -29891.357919       .051110                    
P  4   7299.439938  24844.561693  -5098.694943   -260.491725                    
V  4  -2730.994030   6840.065620  30618.409328      -.172606                    
P  5  12869.877969   8970.863093 -21540.915895    -95.032689                    
V  5 -20960.844945  17231.632501  -5287.017421       .120812                    
P  6 -21762.229156 -13278.640736  -7425.614583    237.023780                    
V  6  10263.084312    -61.750798 -29155.190312       .066990                    
P  7  -8157.230796  19617.612566 -15866.064697     11.678833                    
V  7  -4745.574259 -19671.955237 -22053.347226      -.007218                    
P  8   -982.587318  25838.770264  -4726.823795   -220.787549                    
V  8  -2759.886399  -5812.945298 -31982.158004      -.014932                    
P  9  14469.353637  -1642.383726  21554.048732     76.879927                    
V  9   5054.086307  28480.636174  -1129.375507       .020336                    
P 10  16375.667424   5665.182558 -20380.789849    -23.293122                    
V 10 -19805.948748  15989.255577 -11230.701397      -.008829                    
P 11 -15794.746387   5223.534968  20488.590279    -19.127682                    
V 11  -9620.762101 -25075.009673   -648.314896      -.016717                    
P 12  22855.304724  -9752.060722   9255.431451   -220.646190                    
V 12  -7725.021621   9125.779656  28984.216165       .057263                    
P 13 -11782.329691  10046.218646 -21709.109644    304.456782                    
V 13 -24426.568724 -11905.516110   7776.411296       .005186                    
P 14  -5514.554323 -16848.742715  19950.443193    -52.507789                    
V 14  23090.785890   9444.237397  14325.695157       .052519                    
P 15  25434.864762   6827.285534   3759.305787   -317.869263                    
V 15   3406.430632   4363.567082 -31124.058171      -.011932                    
P 16 -11196.652293 -10265.802000 -21756.492717     13.885012                    
V 16  22025.195439 -16786.157018  -3167.751096      -.038562                    
P 17   5404.896204  17182.678777  19656.137012     84.066243                    
V 17 -23249.001483  -8538.675727  13714.621213       .029949                    
P 18  15150.695034 -19654.382675   9161.421749     11.968567                    
V 18  11191.913203  -4139.576244 -28525.987472       .029108                    
P 19 -24944.324347  -7338.233100   6134.525075     11.292047                    
V 19  -5776.163267  -5662.036101 -30237.712762      -.016666                    
P 20 -22456.802582  12413.943982   6650.254733     72.557754                    
V 20   4481.976765  -8110.789394  29772.338923      -.009112                    
P 21   6495.156980 -22012.956217 -12530.087304     -8.508336                    
V 21   5610.700942  16077.567215 -25407.780237      -.022430                    
P 22   4527.495313 -19432.323225  17658.232082    191.225935                    
V 22  19057.505348 -11561.750918 -17858.232121      -.007353                    
P 23 -22665.413194   1229.551285 -14074.536693    388.683231                    
V 23 -15735.413439  -8229.074846  24383.467290      -.003698                    
P 24  13511.391956 -10559.353962 -20220.657976    219.697270                    
V 24   3449.895620  25713.674850 -10804.826926       .029810                    
P 25 -10776.883162  13408.372767 -19951.295666    589.930778                    
V 25  -7102.312647 -25034.477966 -12588.645043       .149074                    
P 26   3670.798165 -13944.905931  21737.495197     63.049314                    
V 26  26337.326898  11817.444684   3528.283722      -.008797                    
P 27  15773.317660   3582.410803  21759.376628     81.808135                    
V 27   4762.504789  25547.589240  -7888.782009       .031270                    
P 28  -6988.754422  19574.626854  16789.005633    -26.174848                    
V 28 -17603.568668  10849.874660 -20824.144809      -.000102                    
P 29  14420.686990  -9195.514411 -20211.366186     56.460360                    
V 29  23375.138161  11195.439386  11571.265619       .031925                    
P 30  19568.346475 -17889.463502  -1061.135594    175.981760                    
V 30   2716.159134   1780.084770  31587.181584       .030714                    
P 31  -8123.841761 -24270.255373  -6616.948063    -64.479220                    
V 31   1144.350981  -8955.321050  30637.171009       .004121                    
P 32 -22767.568553   3997.066122  13215.167149    198.678629                    
V 32  12301.699696 -10877.184077  25496.379102      -.070769                    
EOF
